CCSDS_OMM_VERS = 2.0
CREATION_DATE  = 
ORIGINATOR     = 

OBJECT_NAME    = STARLINK-35668
OBJECT_ID      = 2025-257X
CENTER_NAME    = EARTH
REF_FRAME      = TEME
TIME_SYSTEM    = UTC
MEAN_ELEMENT_THEORY = SGP/SGP4

EPOCH          = 2025-11-18T16:00:05.000256
MEAN_MOTION    = 15.87153112
ECCENTRICITY   = .0001275
INCLINATION    = 53.1532
RA_OF_ASC_NODE = 20.4651
ARG_OF_PERICENTER = 52.3556
MEAN_ANOMALY   = 61.1618

EPHEMERIS_TYPE = 0
CLASSIFICATION_TYPE = U
NORAD_CAT_ID   = 66401
ELEMENT_SET_NO = 999
REV_AT_EPOCH   = 262
BSTAR          = -.70978E-2
MEAN_MOTION_DOT = -.1650945E-1
MEAN_MOTION_DDOT = 0

CCSDS_OMM_VERS = 2.0
CREATION_DATE  = 
ORIGINATOR     = 

OBJECT_NAME    = STARLINK-35644
OBJECT_ID      = 2025-257Y
CENTER_NAME    = EARTH
REF_FRAME      = TEME
TIME_SYSTEM    = UTC
MEAN_ELEMENT_THEORY = SGP/SGP4

EPOCH          = 2025-11-18T16:00:05.000256
MEAN_MOTION    = 15.87119572
ECCENTRICITY   = .0001106
INCLINATION    = 53.1533
RA_OF_ASC_NODE = 20.4744
ARG_OF_PERICENTER = 50.9474
MEAN_ANOMALY   = 58.1182

EPHEMERIS_TYPE = 0
CLASSIFICATION_TYPE = U
NORAD_CAT_ID   = 66402
ELEMENT_SET_NO = 999
REV_AT_EPOCH   = 262
BSTAR          = -.70067E-2
MEAN_MOTION_DOT = -.1629945E-1
MEAN_MOTION_DDOT = 0

CCSDS_OMM_VERS = 2.0
CREATION_DATE  = 
ORIGINATOR     = 

OBJECT_NAME    = STARLINK-35602
OBJECT_ID      = 2025-257Z
CENTER_NAME    = EARTH
REF_FRAME      = TEME
TIME_SYSTEM    = UTC
MEAN_ELEMENT_THEORY = SGP/SGP4

EPOCH          = 2025-11-18T16:00:05.000256
MEAN_MOTION    = 15.87188603
ECCENTRICITY   = .0001112
INCLINATION    = 53.1532
RA_OF_ASC_NODE = 20.4617
ARG_OF_PERICENTER = 51.4343
MEAN_ANOMALY   = 63.7186

EPHEMERIS_TYPE = 0
CLASSIFICATION_TYPE = U
NORAD_CAT_ID   = 66403
ELEMENT_SET_NO = 999
REV_AT_EPOCH   = 262
BSTAR          = -.7098E-2
MEAN_MOTION_DOT = -.1653383E-1
MEAN_MOTION_DDOT = 0

CCSDS_OMM_VERS = 2.0
CREATION_DATE  = 
ORIGINATOR     = 

OBJECT_NAME    = STARLINK-35691
OBJECT_ID      = 2025-257AA
CENTER_NAME    = EARTH
REF_FRAME      = TEME
TIME_SYSTEM    = UTC
MEAN_ELEMENT_THEORY = SGP/SGP4

EPOCH          = 2025-11-18T16:00:05.000256
MEAN_MOTION    = 15.87196997
ECCENTRICITY   = .0001146
INCLINATION    = 53.1532
RA_OF_ASC_NODE = 20.4568
ARG_OF_PERICENTER = 52.7649
MEAN_ANOMALY   = 64.7892

EPHEMERIS_TYPE = 0
CLASSIFICATION_TYPE = U
NORAD_CAT_ID   = 66404
ELEMENT_SET_NO = 999
REV_AT_EPOCH   = 262
BSTAR          = -.71365E-2
MEAN_MOTION_DOT = -.1661824E-1
MEAN_MOTION_DDOT = 0

CCSDS_OMM_VERS = 2.0
CREATION_DATE  = 
ORIGINATOR     = 

OBJECT_NAME    = STARLINK-35683
OBJECT_ID      = 2025-257AB
CENTER_NAME    = EARTH
REF_FRAME      = TEME
TIME_SYSTEM    = UTC
MEAN_ELEMENT_THEORY = SGP/SGP4

EPOCH          = 2025-11-18T16:00:05.000256
MEAN_MOTION    = 15.87204378
ECCENTRICITY   = .0001156
INCLINATION    = 53.1530
RA_OF_ASC_NODE = 20.4513
ARG_OF_PERICENTER = 53.8055
MEAN_ANOMALY   = 66.2739

EPHEMERIS_TYPE = 0
CLASSIFICATION_TYPE = U
NORAD_CAT_ID   = 66405
ELEMENT_SET_NO = 999
REV_AT_EPOCH   = 246
BSTAR          = -.72006E-2
MEAN_MOTION_DOT = -.1675305E-1
MEAN_MOTION_DDOT = 0

CCSDS_OMM_VERS = 2.0
CREATION_DATE  = 
ORIGINATOR     = 

OBJECT_NAME    = STARLINK-34840
OBJECT_ID      = 2025-257AC
CENTER_NAME    = EARTH
REF_FRAME      = TEME
TIME_SYSTEM    = UTC
MEAN_ELEMENT_THEORY = SGP/SGP4

EPOCH          = 2025-11-18T16:00:05.000256
MEAN_MOTION    = 15.87240223
ECCENTRICITY   = .00011958
INCLINATION    = 53.1529
RA_OF_ASC_NODE = 20.4367
ARG_OF_PERICENTER = 58.0516
MEAN_ANOMALY   = 69.0699

EPHEMERIS_TYPE = 0
CLASSIFICATION_TYPE = U
NORAD_CAT_ID   = 66406
ELEMENT_SET_NO = 999
REV_AT_EPOCH   = 256
BSTAR          = -.73324489E-2
MEAN_MOTION_DOT = -.1704523E-1
MEAN_MOTION_DDOT = 0

CCSDS_OMM_VERS = 2.0
CREATION_DATE  = 
ORIGINATOR     = 

OBJECT_NAME    = STARLINK-35686
OBJECT_ID      = 2025-257AD
CENTER_NAME    = EARTH
REF_FRAME      = TEME
TIME_SYSTEM    = UTC
MEAN_ELEMENT_THEORY = SGP/SGP4

EPOCH          = 2025-11-18T16:00:05.000256
MEAN_MOTION    = 15.87224771
ECCENTRICITY   = .0001155
INCLINATION    = 53.1534
RA_OF_ASC_NODE = 20.4470
ARG_OF_PERICENTER = 55.5842
MEAN_ANOMALY   = 66.5426

EPHEMERIS_TYPE = 0
CLASSIFICATION_TYPE = U
NORAD_CAT_ID   = 66407
ELEMENT_SET_NO = 999
REV_AT_EPOCH   = 262
BSTAR          = -.72177E-2
MEAN_MOTION_DOT = -.1680234E-1
MEAN_MOTION_DDOT = 0

CCSDS_OMM_VERS = 2.0
CREATION_DATE  = 
ORIGINATOR     = 

OBJECT_NAME    = STARLINK-35679
OBJECT_ID      = 2025-257AE
CENTER_NAME    = EARTH
REF_FRAME      = TEME
TIME_SYSTEM    = UTC
MEAN_ELEMENT_THEORY = SGP/SGP4

EPOCH          = 2025-11-18T16:00:05.000256
MEAN_MOTION    = 15.87225683
ECCENTRICITY   = .0001198
INCLINATION    = 53.1534
RA_OF_ASC_NODE = 20.4419
ARG_OF_PERICENTER = 54.2423
MEAN_ANOMALY   = 70.4886

EPHEMERIS_TYPE = 0
CLASSIFICATION_TYPE = U
NORAD_CAT_ID   = 66408
ELEMENT_SET_NO = 999
REV_AT_EPOCH   = 262
BSTAR          = -.7267E-2
MEAN_MOTION_DOT = -.1690297E-1
MEAN_MOTION_DDOT = 0

CCSDS_OMM_VERS = 2.0
CREATION_DATE  = 
ORIGINATOR     = 

OBJECT_NAME    = CHUTIAN-2 A
OBJECT_ID      = 2025-256A
CENTER_NAME    = EARTH
REF_FRAME      = TEME
TIME_SYSTEM    = UTC
MEAN_ELEMENT_THEORY = SGP/SGP4

EPOCH          = 2025-11-19T07:57:20.819808
MEAN_MOTION    = 14.50322780
ECCENTRICITY   = .0012448
INCLINATION    = 98.2836
RA_OF_ASC_NODE = 28.5136
ARG_OF_PERICENTER = 248.6956
MEAN_ANOMALY   = 111.2910

EPHEMERIS_TYPE = 0
CLASSIFICATION_TYPE = U
NORAD_CAT_ID   = 66409
ELEMENT_SET_NO = 999
REV_AT_EPOCH   = 148
BSTAR          = .32147E-4
MEAN_MOTION_DOT = .81E-6
MEAN_MOTION_DDOT = 0

CCSDS_OMM_VERS = 2.0
CREATION_DATE  = 
ORIGINATOR     = 

OBJECT_NAME    = CHUTIAN-2 B
OBJECT_ID      = 2025-256B
CENTER_NAME    = EARTH
REF_FRAME      = TEME
TIME_SYSTEM    = UTC
MEAN_ELEMENT_THEORY = SGP/SGP4

EPOCH          = 2025-11-19T06:16:10.717824
MEAN_MOTION    = 14.50979632
ECCENTRICITY   = .0012694
INCLINATION    = 98.2823
RA_OF_ASC_NODE = 28.4417
ARG_OF_PERICENTER = 256.6010
MEAN_ANOMALY   = 103.3770

EPHEMERIS_TYPE = 0
CLASSIFICATION_TYPE = U
NORAD_CAT_ID   = 66410
ELEMENT_SET_NO = 999
REV_AT_EPOCH   = 147
BSTAR          = .23449607E-3
MEAN_MOTION_DOT = .883E-5
MEAN_MOTION_DDOT = 0

CCSDS_OMM_VERS = 2.0
CREATION_DATE  = 
ORIGINATOR     = 

OBJECT_NAME    = ZK-1A R/B
OBJECT_ID      = 2025-256C
CENTER_NAME    = EARTH
REF_FRAME      = TEME
TIME_SYSTEM    = UTC
MEAN_ELEMENT_THEORY = SGP/SGP4

EPOCH          = 2025-11-18T14:11:15.300384
MEAN_MOTION    = 15.01170804
ECCENTRICITY   = .02327186
INCLINATION    = 98.3241
RA_OF_ASC_NODE = 28.6261
ARG_OF_PERICENTER = 325.5475
MEAN_ANOMALY   = 33.0843

EPHEMERIS_TYPE = 0
CLASSIFICATION_TYPE = U
NORAD_CAT_ID   = 66411
ELEMENT_SET_NO = 999
REV_AT_EPOCH   = 142
BSTAR          = .13989627E-3
MEAN_MOTION_DOT = .3121E-4
MEAN_MOTION_DDOT = 0

CCSDS_OMM_VERS = 2.0
CREATION_DATE  = 
ORIGINATOR     = 

OBJECT_NAME    = HULIANWANG DIGUI 13A
OBJECT_ID      = 2025-258A
CENTER_NAME    = EARTH
REF_FRAME      = TEME
TIME_SYSTEM    = UTC
MEAN_ELEMENT_THEORY = SGP/SGP4

EPOCH          = 2025-11-19T08:06:46.306944
MEAN_MOTION    = 14.25710082
ECCENTRICITY   = .00138618
INCLINATION    = 50.0049
RA_OF_ASC_NODE = 0.5145
ARG_OF_PERICENTER = 276.9076
MEAN_ANOMALY   = 83.0261

EPHEMERIS_TYPE = 0
CLASSIFICATION_TYPE = U
NORAD_CAT_ID   = 66412
ELEMENT_SET_NO = 999
REV_AT_EPOCH   = 132
BSTAR          = .23042225E-4
MEAN_MOTION_DOT = -.105E-5
MEAN_MOTION_DDOT = 0

